ONEWEB-0379             
1 49305U 21090AC  25212.42973262 -.00000087  00000+0 -26793-3 0  9996
2 49305  87.9068 353.5306 0001965  98.0293 262.1059 13.14504790185427
ONEWEB-0380             
1 49306U 21090AD  25212.48008557  .00000055  00000+0  10599-3 0  9999
2 49306  87.9233   8.7278 0001707  99.8090 260.3236 13.19726990184123
ONEWEB-0381             
1 49307U 21090AE  25212.63132169 -.00000024  00000+0 -90239-4 0  9992
2 49307  87.9299 338.3064 0001888 107.3322 252.8018 13.20771862187514
ONEWEB-0382             
1 49308U 21090AF  25212.61871376  .00000125  00000+0  27614-3 0  9997
2 49308  87.9290 338.3015 0002067 107.5919 252.5440 13.20771486187503
ONEWEB-0383             
1 49309U 21090AG  25212.65175098 -.00000135  00000+0 -39979-3 0  9990
2 49309  87.9067 353.4660 0002006  99.0568 261.0789 13.14502272185482
ONEWEB-0384             
1 49310U 21090AH  25212.61430628  .00000140  00000+0  31243-3 0  9991
2 49310  87.9303 338.3216 0002311 110.2396 249.8986 13.20787036187519
ONEWEB-0385             
1 49311U 21090AJ  25212.61080825  .00000127  00000+0  28012-3 0  9997
2 49311  87.9279 338.3186 0001978 102.6254 257.5101 13.20771958187481
ONEWEB-0386             
1 49312U 21090AK  25212.62816616 -.00000034  00000+0 -11435-3 0  9994
2 49312  87.9289 338.2865 0002119 104.6703 255.4665 13.20772456187504
